IRIDIUM 33 DEB          
1 34532U 97051HZ  17345.62807661  .00004799  00000-0  97662-3 0  9997
2 34532  86.3459 198.4202 0049894 347.4000  12.5958 14.60091582460389
